start=new Date('2023-04-15T00:00:00.000Z').valueOf();
sats=[{"REF_FRAME":"TEME","OBJECT_ID":"2022-105AS","TIME_SYSTEM":"UTC","BSTAR":"0.00011157000000","MEAN_MOTION_DOT":"0.00001374","LAUNCH_DATE":"2022-08-31","SITE":"AFWTR","INCLINATION":"97.6559","CLASSIFICATION_TYPE":"U","MEAN_ANOMALY":"265.6239","COUNTRY_CODE":"US","PERIOD":"95.920","APOAPSIS":"565.042","SEMIMAJOR_AXIS":"6941.153","OBJECT_NAME":"STARLINK-4571","ARG_OF_PERICENTER":"94.5318","RA_OF_ASC_NODE":"346.2060","TLE_LINE1":"1 53688U 22105AS  23104.21315428  .00001374  00000-0  11157-3 0  9999","ECCENTRICITY":"0.00029160","DECAY_DATE":null,"FILE":"3887333","MEAN_MOTION":"15.01258145","OBJECT_TYPE":"PAYLOAD","REV_AT_EPOCH":"3413","TLE_LINE2":"2 53688  97.6559 346.2060 0002916  94.5318 265.6239 15.01258145 34138","CENTER_NAME":"EARTH","GP_ID":"230059873","EPHEMERIS_TYPE":"0","EPOCH":"2023-04-14T05:06:56.529792","NORAD_CAT_ID":"53688","MEAN_MOTION_DDOT":"0.0000000000000","MEAN_ELEMENT_THEORY":"SGP4","RCS_SIZE":"LARGE","PERIAPSIS":"560.994","ELEMENT_SET_NO":"999"},{"LAUNCH_DATE":"2022-08-31","BSTAR":"0.00006579900000","MEAN_MOTION_DOT":"0.00000786","TIME_SYSTEM":"UTC","OBJECT_ID":"2022-105AT","REF_FRAME":"TEME","TLE_LINE1":"1 53689U 22105AT  23104.94818092  .00000786  00000-0  65799-4 0  9993","RA_OF_ASC_NODE":"346.9311","ECCENTRICITY":"0.00029630","APOAPSIS":"565.056","PERIOD":"95.919","ARG_OF_PERICENTER":"100.9507","SEMIMAJOR_AXIS":"6941.134","OBJECT_NAME":"STARLINK-4562","MEAN_ANOMALY":"259.2050","CLASSIFICATION_TYPE":"U","COUNTRY_CODE":"US","SITE":"AFWTR","INCLINATION":"97.6551","GP_ID":"230066523","TLE_LINE2":"2 53689  97.6551 346.9311 0002963 100.9507 259.2050 15.01264063 34520","CENTER_NAME":"EARTH","MEAN_MOTION":"15.01264063","OBJECT_TYPE":"PAYLOAD","REV_AT_EPOCH":"3452","FILE":"3887536","DECAY_DATE":null,"ELEMENT_SET_NO":"999","PERIAPSIS":"560.943","RCS_SIZE":"LARGE","MEAN_ELEMENT_THEORY":"SGP4","MEAN_MOTION_DDOT":"0.0000000000000","EPHEMERIS_TYPE":"0","EPOCH":"2023-04-14T22:45:22.831488","NORAD_CAT_ID":"53689"},{"MEAN_ELEMENT_THEORY":"SGP4","RCS_SIZE":"LARGE","PERIAPSIS":"560.482","ELEMENT_SET_NO":"999","NORAD_CAT_ID":"53690","EPOCH":"2023-04-14T05:04:16.701888","EPHEMERIS_TYPE":"0","MEAN_MOTION_DDOT":"0.0000000000000","CENTER_NAME":"EARTH","TLE_LINE2":"2 53690  97.6540 346.2043 0003656  91.3308 268.8335 15.01257572 34414","GP_ID":"230062308","DECAY_DATE":null,"FILE":"3887346","REV_AT_EPOCH":"3441","MEAN_MOTION":"15.01257572","OBJECT_TYPE":"PAYLOAD","OBJECT_NAME":"STARLINK-4570","SEMIMAJOR_AXIS":"6941.154","ARG_OF_PERICENTER":"91.3308","APOAPSIS":"565.557","PERIOD":"95.920","ECCENTRICITY":"0.00036560","RA_OF_ASC_NODE":"346.2043","TLE_LINE1":"1 53690U 22105AU  23104.21130442  .00001091  00000-0  89518-4 0  9996","INCLINATION":"97.6540","SITE":"AFWTR","COUNTRY_CODE":"US","MEAN_ANOMALY":"268.8335","CLASSIFICATION_TYPE":"U","BSTAR":"0.00008951800000","MEAN_MOTION_DOT":"0.00001091","LAUNCH_DATE":"2022-08-31","REF_FRAME":"TEME","OBJECT_ID":"2022-105AU","TIME_SYSTEM":"UTC"},{"REV_AT_EPOCH":"3413","MEAN_MOTION":"15.01260308","OBJECT_TYPE":"PAYLOAD","DECAY_DATE":null,"FILE":"3887333","GP_ID":"230059123","CENTER_NAME":"EARTH","TLE_LINE2":"2 53691  97.6541 346.2046 0004285  80.8661 279.3048 15.01260308 34131","MEAN_MOTION_DDOT":"0.0000000000000","NORAD_CAT_ID":"53691","EPOCH":"2023-04-14T05:04:37.635744","EPHEMERIS_TYPE":"0","PERIAPSIS":"560.037","ELEMENT_SET_NO":"999","MEAN_ELEMENT_THEORY":"SGP4","RCS_SIZE":"LARGE","TIME_SYSTEM":"UTC","REF_FRAME":"TEME","OBJECT_ID":"2022-105AV","LAUNCH_DATE":"2022-08-31","MEAN_MOTION_DOT":"0.00001272","BSTAR":"0.00010363000000","COUNTRY_CODE":"US","MEAN_ANOMALY":"279.3048","CLASSIFICATION_TYPE":"U","INCLINATION":"97.6541","SITE":"AFWTR","ECCENTRICITY":"0.00042850","RA_OF_ASC_NODE":"346.2046","TLE_LINE1":"1 53691U 22105AV  23104.21154671  .00001272  00000-0  10363-3 0  9999","OBJECT_NAME":"STARLINK-4560","SEMIMAJOR_AXIS":"6941.146","ARG_OF_PERICENTER":"80.8661","APOAPSIS":"565.985","PERIOD":"95.919"},{"TLE_LINE2":"2 53692  97.6531 346.9243 0005515  77.3974 282.7867 15.01278219 34522","CENTER_NAME":"EARTH","GP_ID":"230066856","DECAY_DATE":null,"FILE":"3887553","MEAN_MOTION":"15.01278219","OBJECT_TYPE":"PAYLOAD","REV_AT_EPOCH":"3452","MEAN_ELEMENT_THEORY":"SGP4","RCS_SIZE":"LARGE","PERIAPSIS":"559.128","ELEMENT_SET_NO":"999","EPHEMERIS_TYPE":"0","NORAD_CAT_ID":"53692","EPOCH":"2023-04-14T22:37:22.319616","MEAN_MOTION_DDOT":"0.0000000000000","BSTAR":"-0.00004679700000","MEAN_MOTION_DOT":"-0.00000661","LAUNCH_DATE":"2022-08-31","REF_FRAME":"TEME","OBJECT_ID":"2022-105AW","TIME_SYSTEM":"UTC","PERIOD":"95.918","APOAPSIS":"566.784","SEMIMAJOR_AXIS":"6941.091","OBJECT_NAME":"STARLINK-4572","ARG_OF_PERICENTER":"77.3974","RA_OF_ASC_NODE":"346.9243","TLE_LINE1":"1 53692U 22105AW  23104.94261944 -.00000661  00000-0 -46797-4 0  9996","ECCENTRICITY":"0.00055150","SITE":"AFWTR","INCLINATION":"97.6531","MEAN_ANOMALY":"282.7867","CLASSIFICATION_TYPE":"U","COUNTRY_CODE":"US"},{"LAUNCH_DATE":"2022-08-31","BSTAR":"0.00009912900000","MEAN_MOTION_DOT":"0.00001215","TIME_SYSTEM":"UTC","OBJECT_ID":"2022-105AX","REF_FRAME":"TEME","TLE_LINE1":"1 53693U 22105AX  23104.20760242  .00001215  00000-0  99129-4 0  9992","RA_OF_ASC_NODE":"346.1991","ECCENTRICITY":"0.00056120","PERIOD":"95.920","APOAPSIS":"566.913","ARG_OF_PERICENTER":"73.9348","OBJECT_NAME":"STARLINK-4566","SEMIMAJOR_AXIS":"6941.153","MEAN_ANOMALY":"286.2494","CLASSIFICATION_TYPE":"U","COUNTRY_CODE":"US","SITE":"AFWTR","INCLINATION":"97.6529","GP_ID":"230058122","TLE_LINE2":"2 53693  97.6529 346.1991 0005612  73.9348 286.2494 15.01258072 34134","CENTER_NAME":"EARTH","OBJECT_TYPE":"PAYLOAD","MEAN_MOTION":"15.01258072","REV_AT_EPOCH":"3413","FILE":"3887333","DECAY_DATE":null,"ELEMENT_SET_NO":"999","PERIAPSIS":"559.122","RCS_SIZE":"LARGE","MEAN_ELEMENT_THEORY":"SGP4","MEAN_MOTION_DDOT":"0.0000000000000","EPHEMERIS_TYPE":"0","EPOCH":"2023-04-14T04:58:56.849088","NORAD_CAT_ID":"53693"},{"PERIOD":"95.436","APOAPSIS":"540.373","SEMIMAJOR_AXIS":"6917.801","OBJECT_NAME":"STARLINK-4725","ARG_OF_PERICENTER":"89.4114","RA_OF_ASC_NODE":"325.2928","TLE_LINE1":"1 53700U 22107A   23104.01743151 -.00004826  00000-0 -28512-3 0  9992","ECCENTRICITY":"0.00010220","SITE":"AFETR","INCLINATION":"53.2173","MEAN_ANOMALY":"270.6995","CLASSIFICATION_TYPE":"U","COUNTRY_CODE":"US","MEAN_MOTION_DOT":"-0.00004826","BSTAR":"-0.00028512000000","LAUNCH_DATE":"2022-09-05","REF_FRAME":"TEME","OBJECT_ID":"2022-107A","TIME_SYSTEM":"UTC","MEAN_ELEMENT_THEORY":"SGP4","RCS_SIZE":"LARGE","PERIAPSIS":"538.959","ELEMENT_SET_NO":"999","EPHEMERIS_TYPE":"0","NORAD_CAT_ID":"53700","EPOCH":"2023-04-14T00:25:06.082464","MEAN_MOTION_DDOT":"0.0000000000000","TLE_LINE2":"2 53700  53.2173 325.2928 0001022  89.4114 270.6995 15.08865993 34730","CENTER_NAME":"EARTH","GP_ID":"230059874","DECAY_DATE":null,"FILE":"3887333","OBJECT_TYPE":"PAYLOAD","MEAN_MOTION":"15.08865993","REV_AT_EPOCH":"3473"},{"INCLINATION":"53.2183","SITE":"AFETR","COUNTRY_CODE":"US","MEAN_ANOMALY":"272.3140","CLASSIFICATION_TYPE":"U","OBJECT_NAME":"STARLINK-4711","SEMIMAJOR_AXIS":"6917.847","ARG_OF_PERICENTER":"87.7985","APOAPSIS":"540.517","PERIOD":"95.437","ECCENTRICITY":"0.00011640","RA_OF_ASC_NODE":"325.2662","TLE_LINE1":"1 53701U 22107B   23104.01374950  .00004630  00000-0  30871-3 0  9992","REF_FRAME":"TEME","OBJECT_ID":"2022-107B","TIME_SYSTEM":"UTC","MEAN_MOTION_DOT":"0.00004630","BSTAR":"0.00030871000000","LAUNCH_DATE":"2022-09-05","NORAD_CAT_ID":"53701","EPOCH":"2023-04-14T00:19:47.956800","EPHEMERIS_TYPE":"0","MEAN_MOTION_DDOT":"0.0000000000000","MEAN_ELEMENT_THEORY":"SGP4","RCS_SIZE":"LARGE","PERIAPSIS":"538.907","ELEMENT_SET_NO":"999","DECAY_DATE":null,"FILE":"3887333","REV_AT_EPOCH":"3473","OBJECT_TYPE":"PAYLOAD","MEAN_MOTION":"15.08850851","CENTER_NAME":"EARTH","TLE_LINE2":"2 53701  53.2183 325.2662 0001164  87.7985 272.3140 15.08850851 34739","GP_ID":"230059875"},{"TLE_LINE1":"1 53702U 22107C   23103.97284652  .00001434  00000-0  10816-3 0  9992","RA_OF_ASC_NODE":"310.7633","ECCENTRICITY":"0.00012040","PERIOD":"95.437","APOAPSIS":"540.563","ARG_OF_PERICENTER":"75.4998","SEMIMAJOR_AXIS":"6917.865","OBJECT_NAME":"STARLINK-4724","CLASSIFICATION_TYPE":"U","MEAN_ANOMALY":"284.6128","COUNTRY_CODE":"US","SITE":"AFETR","INCLINATION":"53.2190","LAUNCH_DATE":"2022-09-05","BSTAR":"0.00010816000000","MEAN_MOTION_DOT":"0.00001434","TIME_SYSTEM":"UTC","OBJECT_ID":"2022-107C","REF_FRAME":"TEME","ELEMENT_SET_NO":"999","PERIAPSIS":"538.897","RCS_SIZE":"LARGE","MEAN_ELEMENT_THEORY":"SGP4","MEAN_MOTION_DDOT":"0.0000000000000","EPHEMERIS_TYPE":"0","EPOCH":"2023-04-13T23:20:53.939328","NORAD_CAT_ID":"53702","GP_ID":"230058873","TLE_LINE2":"2 53702  53.2190 310.7633 0001204  75.4998 284.6128 15.08845081 34964","CENTER_NAME":"EARTH","OBJECT_TYPE":"PAYLOAD","MEAN_MOTION":"15.08845081","REV_AT_EPOCH":"3496","FILE":"3887333","DECAY_DATE":null},{"MEAN_MOTION_DDOT":"0.0000000000000","NORAD_CAT_ID":"53703","EPOCH":"2023-04-14T00:42:23.860512","EPHEMERIS_TYPE":"0","ELEMENT_SET_NO":"999","PERIAPSIS":"538.766","RCS_SIZE":"LARGE","MEAN_ELEMENT_THEORY":"SGP4","REV_AT_EPOCH":"3473","OBJECT_TYPE":"PAYLOAD","MEAN_MOTION":"15.08844615","FILE":"3887333","DECAY_DATE":null,"GP_ID":"230059124","CENTER_NAME":"EARTH","TLE_LINE2":"2 53703  53.2172 325.3656 0001396  93.6794 266.4358 15.08844615 34730","COUNTRY_CODE":"US","CLASSIFICATION_TYPE":"U","MEAN_ANOMALY":"266.4358","INCLINATION":"53.2172","SITE":"AFETR","ECCENTRICITY":"0.00013960","TLE_LINE1":"1 53703U 22107D   23104.02944283  .00001584  00000-0  11756-3 0  9993","RA_OF_ASC_NODE":"325.3656","ARG_OF_PERICENTER":"93.6794","OBJECT_NAME":"STARLINK-4731","SEMIMAJOR_AXIS":"6917.866","APOAPSIS":"540.697","PERIOD":"95.437","TIME_SYSTEM":"UTC","OBJECT_ID":"2022-107D","REF_FRAME":"TEME","LAUNCH_DATE":"2022-09-05","BSTAR":"0.00011756000000","MEAN_MOTION_DOT":"0.00001584"}];
